{"type": "FeatureCollection", "features": [ {"type": "Feature", "properties": {"norad_id": 66052, "name": "HRC MONOBLOCK CAMERA", "group": "stations", "lat": 48.38365016265806, "lon": -102.22643465263155, "alt_km": 397.45545405244866, "timestamp": "2025-12-12T20:43:05.813849+00:00", "meta": {"OBJECT_NAME": "HRC MONOBLOCK CAMERA", "OBJECT_ID": "1998-067XR", "EPOCH": "2025-12-12T01:44:18.858336", "MEAN_MOTION": 15.54060412, "ECCENTRICITY": 0.0003436, "INCLINATION": 51.6287, "RA_OF_ASC_NODE": 144.8345, "ARG_OF_PERICENTER": 180.6956, "MEAN_ANOMALY": 179.403, "EPHEMERIS_TYPE": 0, "CLASSIFICATION_TYPE": "U", "NORAD_CAT_ID": 66052, "ELEMENT_SET_NO": 999, "REV_AT_EPOCH": 873, "BSTAR": 0.00072872732, "MEAN_MOTION_DOT": 0.00047939, "MEAN_MOTION_DDOT": 0}, "tle": {"line1": "1 66052U 98067XR  25346.07244049  .00047939  00000+0  72873-3 0  9990", "line2": "2 66052  51.6287 144.8345 0003436 180.6956 179.4030 15.54060412  8730"}}, "geometry": {"type": "Point", "coordinates": [-102.22643465263155, 48.38365016265806]}}, {"type": "Feature", "properties": {"norad_id": 66174, "name": "HTV-X1", "group": "stations", "lat": -1.2720512746955421, "lon": 140.85821512273927, "alt_km": 419.99464305541824, "timestamp": "2025-12-12T20:43:05.813859+00:00", "meta": {"OBJECT_NAME": "HTV-X1", "OBJECT_ID": "2025-241A", "EPOCH": "2025-12-12T03:41:57.165504", "MEAN_MOTION": 15.49529746, "ECCENTRICITY": 0.00032837, "INCLINATION": 51.6307, "RA_OF_ASC_NODE": 145.3792, "ARG_OF_PERICENTER": 237.6977, "MEAN_ANOMALY": 122.3694, "EPHEMERIS_TYPE": 0, "CLASSIFICATION_TYPE": "U", "NORAD_CAT_ID": 66174, "ELEMENT_SET_NO": 999, "REV_AT_EPOCH": 51, "BSTAR": 0.00026408062, "MEAN_MOTION_DOT": 0.00014398, "MEAN_MOTION_DDOT": 0}, "tle": {"line1": "1 66174U 25241A   25346.15413386  .00014398  00000+0  26408-3 0  9996", "line2": "2 66174  51.6307 145.3792 0003283 237.6977 122.3694 15.49529746   511"}}, "geometry": {"type": "Point", "coordinates": [140.85821512273927, -1.2720512746955421]}}, {"type": "Feature", "properties": {"norad_id": 66515, "name": "SZ-21 MODULE", "group": "stations", "lat": 16.253498071372192, "lon": 34.56116135177371, "alt_km": 380.03857226735727, "timestamp": "2025-12-12T20:43:05.813871+00:00", "meta": {"OBJECT_NAME": "SZ-21 MODULE", "OBJECT_ID": "2025-246C", "EPOCH": "2025-12-12T03:44:14.440416", "MEAN_MOTION": 15.62436812, "ECCENTRICITY": 0.00063303, "INCLINATION": 41.4775, "RA_OF_ASC_NODE": 19.6084, "ARG_OF_PERICENTER": 257.16, "MEAN_ANOMALY": 102.8532, "EPHEMERIS_TYPE": 0, "CLASSIFICATION_TYPE": "U", "NORAD_CAT_ID": 66515, "ELEMENT_SET_NO": 999, "REV_AT_EPOCH": 435, "BSTAR": 0.00037241504, "MEAN_MOTION_DOT": 0.00033863, "MEAN_MOTION_DDOT": 0}, "tle": {"line1": "1 66515U 25246C   25346.15572269  .00033863  00000+0  37242-3 0  9992", "line2": "2 66515  41.4775  19.6084 0006330 257.1600 102.8532 15.62436812  4355"}}, "geometry": {"type": "Point", "coordinates": [34.56116135177371, 16.253498071372192]}}, {"type": "Feature", "properties": {"norad_id": 66645, "name": "SHENZHOU-22", "group": "stations", "lat": 36.7253800701787, "lon": 138.3034706160019, "alt_km": 383.47091891900345, "timestamp": "2025-12-12T20:43:05.813881+00:00", "meta": {"OBJECT_NAME": "SHENZHOU-22", "OBJECT_ID": "2025-272A", "EPOCH": "2025-12-12T03:18:59.276448", "MEAN_MOTION": 15.59138453, "ECCENTRICITY": 0.0008469, "INCLINATION": 41.4684, "RA_OF_ASC_NODE": 20.3596, "ARG_OF_PERICENTER": 25.2431, "MEAN_ANOMALY": 334.882, "EPHEMERIS_TYPE": 0, "CLASSIFICATION_TYPE": "U", "NORAD_CAT_ID": 66645, "ELEMENT_SET_NO": 999, "REV_AT_EPOCH": 26357, "BSTAR": 0.00037752271, "MEAN_MOTION_DOT": 0.00030211, "MEAN_MOTION_DDOT": 0}, "tle": {"line1": "1 66645U 25272A   25346.13818607  .00030211  00000+0  37752-3 0  9992", "line2": "2 66645  41.4684  20.3596 0008469  25.2431 334.8820 15.59138453263570"}}, "geometry": {"type": "Point", "coordinates": [138.3034706160019, 36.7253800701787]}}, {"type": "Feature", "properties": {"norad_id": 66664, "name": "SOYUZ-MS 28", "group": "stations", "lat": -1.2720496548110523, "lon": 140.85821640514558, "alt_km": 419.99464291898494, "timestamp": "2025-12-12T20:43:05.813891+00:00", "meta": {"OBJECT_NAME": "SOYUZ-MS 28", "OBJECT_ID": "2025-275A", "EPOCH": "2025-12-12T03:41:57.165504", "MEAN_MOTION": 15.49529746, "ECCENTRICITY": 0.00032837, "INCLINATION": 51.6307, "RA_OF_ASC_NODE": 145.3792, "ARG_OF_PERICENTER": 237.6977, "MEAN_ANOMALY": 122.3694, "EPHEMERIS_TYPE": 0, "CLASSIFICATION_TYPE": "U", "NORAD_CAT_ID": 66664, "ELEMENT_SET_NO": 999, "REV_AT_EPOCH": 128, "BSTAR": 0.00026408062, "MEAN_MOTION_DOT": 0.00014398, "MEAN_MOTION_DDOT": 0}, "tle": {"line1": "1 66664U 25275A   25346.15413386  .00014398  00000+0  26408-3 0  9997", "line2": "2 66664  51.6307 145.3792 0003283 237.6977 122.3694 15.49529746  1280"}}, "geometry": {"type": "Point", "coordinates": [140.85821640514558, -1.2720496548110523]}}, {"type": "Feature", "properties": {"norad_id": 66906, "name": "1998-067XS", "group": "stations", "lat": 21.807893677832876, "lon": 160.28665208814664, "alt_km": 415.07073860352375, "timestamp": "2025-12-12T20:43:05.813901+00:00", "meta": {"OBJECT_NAME": "1998-067XS", "OBJECT_ID": "1998-067XS", "EPOCH": "2025-12-11T19:50:50.396352", "MEAN_MOTION": 15.50491702, "ECCENTRICITY": 0.00036759, "INCLINATION": 51.6297, "RA_OF_ASC_NODE": 146.9447, "ARG_OF_PERICENTER": 198.3211, "MEAN_ANOMALY": 161.7647, "EPHEMERIS_TYPE": 0, "CLASSIFICATION_TYPE": "U", "NORAD_CAT_ID": 66906, "ELEMENT_SET_NO": 999, "REV_AT_EPOCH": 147, "BSTAR": 0.00060264305, "MEAN_MOTION_DOT": 0.00034698, "MEAN_MOTION_DDOT": 0}, "tle": {"line1": "1 66906U 98067XS  25345.82697218  .00034698  00000+0  60264-3 0  9999", "line2": "2 66906  51.6297 146.9447 0003675 198.3211 161.7647 15.50491702  1478"}}, "geometry": {"type": "Point", "coordinates": [160.28665208814664, 21.807893677832876]}}, {"type": "Feature", "properties": {"norad_id": 66907, "name": "1998-067XT", "group": "stations", "lat": 32.62284646904342, "lon": 172.24071076514585, "alt_km": 411.6804546920612, "timestamp": "2025-12-12T20:43:05.813911+00:00", "meta": {"OBJECT_NAME": "1998-067XT", "OBJECT_ID": "1998-067XT", "EPOCH": "2025-12-09T12:07:37.114752", "MEAN_MOTION": 15.50864429, "ECCENTRICITY": 0.00048036, "INCLINATION": 51.6307, "RA_OF_ASC_NODE": 158.4423, "ARG_OF_PERICENTER": 208.5081, "MEAN_ANOMALY": 151.5646, "EPHEMERIS_TYPE": 0, "CLASSIFICATION_TYPE": "U", "NORAD_CAT_ID": 66907, "ELEMENT_SET_NO": 999, "REV_AT_EPOCH": 111, "BSTAR": 0.0012921241, "MEAN_MOTION_DOT": 0.00076342, "MEAN_MOTION_DDOT": 0}, "tle": {"line1": "1 66907U 98067XT  25343.50529068  .00076342  00000+0  12921-2 0  9998", "line2": "2 66907  51.6307 158.4423 0004803 208.5081 151.5646 15.50864429  1113"}}, "geometry": {"type": "Point", "coordinates": [172.24071076514585, 32.62284646904342]}}, {"type": "Feature", "properties": {"norad_id": 66908, "name": "1998-067XU", "group": "stations", "lat": 34.15229687166724, "lon": 174.27992311304294, "alt_km": 411.00714407112264, "timestamp": "2025-12-12T20:43:05.813921+00:00", "meta": {"OBJECT_NAME": "1998-067XU", "OBJECT_ID": "1998-067XU", "EPOCH": "2025-12-11T19:47:12.664032", "MEAN_MOTION": 15.51346926, "ECCENTRICITY": 0.00046963, "INCLINATION": 51.6299, "RA_OF_ASC_NODE": 146.928, "ARG_OF_PERICENTER": 220.0254, "MEAN_ANOMALY": 140.039, "EPHEMERIS_TYPE": 0, "CLASSIFICATION_TYPE": "U", "NORAD_CAT_ID": 66908, "ELEMENT_SET_NO": 999, "REV_AT_EPOCH": 147, "BSTAR": 0.0013269788, "MEAN_MOTION_DOT": 0.00079814, "MEAN_MOTION_DDOT": 0}, "tle": {"line1": "1 66908U 98067XU  25345.82445213  .00079814  00000+0  13270-2 0  9990", "line2": "2 66908  51.6299 146.9280 0004696 220.0254 140.0390 15.51346926  1474"}}, "geometry": {"type": "Point", "coordinates": [174.27992311304294, 34.15229687166724]}}, {"type": "Feature", "properties": {"norad_id": 66909, "name": "SILVERSAT", "group": "stations", "lat": 35.534778635057954, "lon": 176.22562330382402, "alt_km": 410.37123780766524, "timestamp": "2025-12-12T20:43:05.813934+00:00", "meta": {"OBJECT_NAME": "SILVERSAT", "OBJECT_ID": "1998-067XV", "EPOCH": "2025-12-11T19:46:46.158240", "MEAN_MOTION": 15.51450033, "ECCENTRICITY": 0.00045562, "INCLINATION": 51.63, "RA_OF_ASC_NODE": 146.926, "ARG_OF_PERICENTER": 222.0234, "MEAN_ANOMALY": 138.0406, "EPHEMERIS_TYPE": 0, "CLASSIFICATION_TYPE": "U", "NORAD_CAT_ID": 66909, "ELEMENT_SET_NO": 999, "REV_AT_EPOCH": 147, "BSTAR": 0.0013718352, "MEAN_MOTION_DOT": 0.00082864, "MEAN_MOTION_DDOT": 0}, "tle": {"line1": "1 66909U 98067XV  25345.82414535  .00082864  00000+0  13718-2 0  9990", "line2": "2 66909  51.6300 146.9260 0004556 222.0234 138.0406 15.51450033  1471"}}, "geometry": {"type": "Point", "coordinates": [176.22562330382402, 35.534778635057954]}}, {"type": "Feature", "properties": {"norad_id": 66910, "name": "1998-067XW", "group": "stations", "lat": 40.667480474896216, "lon": -175.3541733741517, "alt_km": 409.3267888850414, "timestamp": "2025-12-12T20:43:05.813946+00:00", "meta": {"OBJECT_NAME": "1998-067XW", "OBJECT_ID": "1998-067XW", "EPOCH": "2025-12-12T00:22:58.433376", "MEAN_MOTION": 15.51622834, "ECCENTRICITY": 0.00053767, "INCLINATION": 51.6296, "RA_OF_ASC_NODE": 145.9572, "ARG_OF_PERICENTER": 204.7962, "MEAN_ANOMALY": 155.277, "EPHEMERIS_TYPE": 0, "CLASSIFICATION_TYPE": "U", "NORAD_CAT_ID": 66910, "ELEMENT_SET_NO": 999, "REV_AT_EPOCH": 150, "BSTAR": 0.0012086186, "MEAN_MOTION_DOT": 0.00073325, "MEAN_MOTION_DDOT": 0}, "tle": {"line1": "1 66910U 98067XW  25346.01595409  .00073325  00000+0  12086-2 0  9993", "line2": "2 66910  51.6296 145.9572 0005376 204.7962 155.2770 15.51622834  1507"}}, "geometry": {"type": "Point", "coordinates": [-175.3541733741517, 40.667480474896216]}}]}